NORAD_CAT_ID,OBJECT_NAME,OBJECT_TYPE,EPOCH,MEAN_MOTION,ECCENTRICITY,INCLINATION,RA_OF_ASC_NODE,ARG_OF_PERICENTER,MEAN_ANOMALY,BSTAR,MEAN_MOTION_DOT,MEAN_MOTION_DDOT,TLE_LINE0,TLE_LINE1,TLE_LINE2,SEMIMAJOR_AXIS,PERIOD,APOGEE,PERIGEE,DECAYED
53280.0,STARLINK-4169,PAYLOAD,2023-12-30 13:29:32,15.0884226,0.0001423,53.217,130.7083,76.86,283.2551,6.4478e-05,7.38e-06,0.0,0 STARLINK-4169,1 53280U 22086AQ  23364.56218052  .00000738  00000-0  64478-4 0  9994,2 53280  53.2170 130.7083 0001423  76.8600 283.2551 15.08842260 81042,6917.873,95.437,540.723,538.754,0.0
53280.0,STARLINK-4169,PAYLOAD,2023-12-30 15:04:55,15.08843577,0.0001435,53.2169,130.4108,76.5939,283.5213,6.8627e-05,8.05e-06,0.0,0 STARLINK-4169,1 53280U 22086AQ  23364.62841951  .00000805  00000-0  68627-4 0  9996,2 53280  53.2169 130.4108 0001435  76.5939 283.5213 15.08843577 81051,6917.869,95.437,540.727,538.742,0.0
53280.0,STARLINK-4169,PAYLOAD,2023-12-31 18:06:28,15.0884019,0.0001365,53.2168,125.3541,88.6024,271.5124,5.5703e-05,5.99e-06,0.0,0 STARLINK-4169,1 53280U 22086AQ  23365.75450142  .00000599  00000-0  55703-4 0  9990,2 53280  53.2168 125.3541 0001365  88.6024 271.5124 15.08840190 81051,6917.88,95.438,540.689,538.801,0.0
53280.0,STARLINK-4169,PAYLOAD,2024-01-01 14:46:29,15.08842411,0.0001373,53.2171,121.4876,96.3625,263.7523,2.4086e-05,9.5e-07,0.0,0 STARLINK-4169,1 53280U 22086AQ  24001.61562048  .00000095  00000-0  24086-4 0  9993,2 53280  53.2171 121.4876 0001373  96.3625 263.7523 15.08842411 81352,6917.873,95.437,540.688,538.788,0.0
53280.0,STARLINK-4169,PAYLOAD,2024-01-02 11:26:30,15.08834983,0.0001361,53.217,117.6216,94.718,265.3968,1.8531e-05,7e-08,0.0,0 STARLINK-4169,1 53280U 22086AQ  24002.47674674  .00000007  00000-0  18531-4 0  9998,2 53280  53.2170 117.6216 0001361  94.7180 265.3968 15.08834983 81313,6917.896,95.438,540.702,538.819,0.0
53280.0,STARLINK-4169,PAYLOAD,2024-01-02 14:37:16,15.08839228,0.0001404,53.2176,117.0304,100.903,259.212,2.5109e-05,1.12e-06,0.0,0 STARLINK-4169,1 53280U 22086AQ  24002.60922424  .00000112  00000-0  25109-4 0  9998,2 53280  53.2176 117.0304 0001404 100.9030 259.2120 15.08839228 81503,6917.883,95.438,540.719,538.776,0.0
53280.0,STARLINK-4169,PAYLOAD,2024-01-02 17:48:03,15.08841618,0.0001399,53.2171,116.4315,104.0817,256.0331,3.6105e-05,2.87e-06,0.0,0 STARLINK-4169,1 53280U 22086AQ  24002.74170192  .00000287  00000-0  36105-4 0  9991,2 53280  53.2171 116.4315 0001399 104.0817 256.0331 15.08841618 81352,6917.875,95.437,540.708,538.773,0.0
53280.0,STARLINK-4169,PAYLOAD,2024-01-03 11:17:18,15.08834275,0.0001457,53.2176,113.158,96.812,263.3038,-2.7919e-05,-7.32e-06,0.0,0 STARLINK-4169,1 53280U 22086AQ  24003.47035148 -.00000732  00000-0 -27919-4 0  9993,2 53280  53.2176 113.1580 0001457  96.8120 263.3038 15.08834275 81463,6917.898,95.438,540.771,538.755,0.0
53280.0,STARLINK-4169,PAYLOAD,2024-01-03 12:52:41,15.08834831,0.0001279,53.2176,112.8605,89.5771,270.5367,-1.2144e-05,-4.81e-06,0.0,0 STARLINK-4169,1 53280U 22086AQ  24003.53659085 -.00000481  00000-0 -12144-4 0  9997,2 53280  53.2176 112.8605 0001279  89.5771 270.5367 15.08834831 81643,6917.896,95.438,540.646,538.876,0.0
53280.0,STARLINK-4169,PAYLOAD,2024-01-04 14:18:51,15.08837546,0.0001496,53.2177,108.1027,77.7396,282.3764,4.3442e-05,4.03e-06,0.0,0 STARLINK-4169,1 53280U 22086AQ  24004.59643146  .00000403  00000-0  43442-4 0  9992,2 53280  53.2177 108.1027 0001496  77.7396 282.3764 15.08837546 81809,6917.888,95.438,540.788,538.718,0.0
53280.0,STARLINK-4169,PAYLOAD,2024-01-04 15:54:14,15.08837845,0.0001464,53.2178,107.8061,87.3434,272.7725,4.178e-05,3.77e-06,0.0,0 STARLINK-4169,1 53280U 22086AQ  24004.66267102  .00000377  00000-0  41780-4 0  9997,2 53280  53.2178 107.8061 0001464  87.3434 272.7725 15.08837845 81643,6917.887,95.438,540.765,538.739,0.0
53280.0,STARLINK-4169,PAYLOAD,2024-01-05 14:09:38,15.08840279,0.0001527,53.2174,103.6479,73.7424,286.3736,8.4784e-05,1.062e-05,0.0,0 STARLINK-4169,1 53280U 22086AQ  24005.59003269  .00001062  00000-0  84784-4 0  9995,2 53280  53.2174 103.6479 0001527  73.7424 286.3736 15.08840279 81956,6917.88,95.438,540.801,538.688,0.0
53280.0,STARLINK-4169,PAYLOAD,2024-01-06 12:25:02,15.08838635,0.0001492,53.2175,99.4854,75.2153,284.9005,0.00017398,2.482e-05,0.0,0 STARLINK-4169,1 53280U 22086AQ  24006.51739008  .00002482  00000-0  17398-3 0  9998,2 53280  53.2175  99.4854 0001492  75.2153 284.9005 15.08838635 81926,6917.885,95.438,540.782,538.717,0.0
53280.0,STARLINK-4169,PAYLOAD,2024-01-06 15:35:48,15.08851001,0.0001422,53.2169,98.8893,87.7328,272.3827,0.00011989,1.621e-05,0.0,0 STARLINK-4169,1 53280U 22086AQ  24006.64986352  .00001621  00000-0  11989-3 0  9992,2 53280  53.2169  98.8893 0001422  87.7328 272.3827 15.08851001 81947,6917.847,95.437,540.695,538.728,0.0
53280.0,STARLINK-4169,PAYLOAD,2024-01-07 12:15:49,15.08845223,0.000155,53.2175,95.0246,89.3122,270.8048,4.0464e-05,3.56e-06,0.0,0 STARLINK-4169,1 53280U 22086AQ  24007.51098864  .00000356  00000-0  40464-4 0  9996,2 53280  53.2175  95.0246 0001550  89.3122 270.8048 15.08845223 82079,6917.864,95.437,540.802,538.657,0.0
53280.0,STARLINK-4169,PAYLOAD,2024-01-08 12:06:37,15.08836215,0.0001528,53.2184,90.5656,94.3161,265.8006,-5.7766e-05,-1.207e-05,0.0,0 STARLINK-4169,1 53280U 22086AQ  24008.50459692 -.00001207  00000-0 -57766-4 0  9997,2 53280  53.2184  90.5656 0001528  94.3161 265.8006 15.08836215 82224,6917.892,95.438,540.814,538.7,0.0
53280.0,STARLINK-4169,PAYLOAD,2024-01-09 11:57:23,15.08848838,0.0001375,53.2173,86.1017,92.9506,267.1643,7.5487e-05,9.14e-06,0.0,0 STARLINK-4169,1 53280U 22086AQ  24009.49818477  .00000914  00000-0  75487-4 0  9998,2 53280  53.2173  86.1017 0001375  92.9506 267.1643 15.08848838 82373,6917.853,95.437,540.67,538.767,0.0
53280.0,STARLINK-4169,PAYLOAD,2024-01-10 10:12:47,15.08840261,0.0001381,53.2181,81.9358,103.0295,257.0851,5.2394e-05,5.46e-06,0.0,0 STARLINK-4169,1 53280U 22086AQ  24010.42555090  .00000546  00000-0  52394-4 0  9995,2 53280  53.2181  81.9358 0001381 103.0295 257.0851 15.08840261 82516,6917.88,95.438,540.7,538.789,0.0
53280.0,STARLINK-4169,PAYLOAD,2024-01-11 11:38:57,15.08846093,0.0001336,53.2175,77.1804,86.1019,274.0126,-3.3919e-05,-8.28e-06,0.0,0 STARLINK-4169,1 53280U 22086AQ  24011.48539295 -.00000828  00000-0 -33919-4 0  9998,2 53280  53.2175  77.1804 0001336  86.1019 274.0126 15.08846093 82677,6917.862,95.437,540.651,538.803,0.0
53280.0,STARLINK-4169,PAYLOAD,2024-01-12 11:29:45,15.08837498,0.0001974,53.2184,72.7211,58.6723,301.4462,8.5598e-05,1.074e-05,0.0,0 STARLINK-4169,1 53280U 22086AQ  24012.47899935  .00001074  00000-0  85598-4 0  9990,2 53280  53.2184  72.7211 0001974  58.6723 301.4462 15.08837498 82828,6917.888,95.438,541.119,538.387,0.0
53280.0,STARLINK-4169,PAYLOAD,2024-01-13 11:20:32,15.08837133,0.0001976,53.2184,68.2635,60.113,300.0058,0.00010718,1.418e-05,0.0,0 STARLINK-4169,1 53280U 22086AQ  24013.47260055  .00001418  00000-0  10718-3 0  9999,2 53280  53.2184  68.2635 0001976  60.1130 300.0058 15.08837133 83148,6917.889,95.438,541.121,538.387,0.0
53280.0,STARLINK-4169,PAYLOAD,2024-01-14 03:14:24,15.08843676,0.0001927,53.2182,65.2893,72.8627,287.2576,4.1246e-05,3.68e-06,0.0,0 STARLINK-4169,1 53280U 22086AQ  24014.13500019  .00000368  00000-0  41246-4 0  9994,2 53280  53.2182  65.2893 0001927  72.8627 287.2576 15.08843676 83078,6917.869,95.437,541.067,538.401,0.0
53280.0,STARLINK-4169,PAYLOAD,2024-01-14 09:35:56,15.08845501,0.0001955,53.2181,64.1001,70.9228,289.1976,5.7428e-05,6.26e-06,0.0,0 STARLINK-4169,1 53280U 22086AQ  24014.39995831  .00000626  00000-0  57428-4 0  9998,2 53280  53.2181  64.1001 0001955  70.9228 289.1976 15.08845501 83280,6917.864,95.437,541.081,538.376,0.0
53280.0,STARLINK-4169,PAYLOAD,2024-01-15 09:26:42,15.08879036,0.0001667,53.2175,59.6394,75.0227,285.095,-0.00037157,-6.203e-05,0.0,0 STARLINK-4169,1 53280U 22086AQ  24015.39354547 -.00006203  00000-0 -37157-3 0  9997,2 53280  53.2175  59.6394 0001667  75.0227 285.0950 15.08879036 83267,6917.761,95.435,540.779,538.473,0.0
53280.0,STARLINK-4169,PAYLOAD,2024-01-16 02:55:58,15.08836173,0.0001796,53.2179,56.3676,93.9464,266.1733,-1.1424e-05,-4.7e-06,0.0,0 STARLINK-4169,1 53280U 22086AQ  24016.12220323 -.00000470  00000-0 -11424-4 0  9993,2 53280  53.2179  56.3676 0001796  93.9464 266.1733 15.08836173 83379,6917.892,95.438,541.0,538.515,0.0
53280.0,STARLINK-4169,PAYLOAD,2024-01-16 09:17:31,15.08834614,0.0001899,53.2185,55.1777,94.874,265.2469,-3.662e-05,-8.71e-06,0.0,0 STARLINK-4169,1 53280U 22086AQ  24016.38716565 -.00000871  00000-0 -36620-4 0  9999,2 53280  53.2185  55.1777 0001899  94.8740 265.2469 15.08834614 83583,6917.897,95.438,541.076,538.448,0.0
53280.0,STARLINK-4169,PAYLOAD,2024-01-17 09:08:17,15.08846852,0.0001805,53.2183,50.7149,98.777,261.3427,4.8664e-05,4.87e-06,0.0,0 STARLINK-4169,1 53280U 22086AQ  24017.38075632  .00000487  00000-0  48664-4 0  9995,2 53280  53.2183  50.7149 0001805  98.7770 261.3427 15.08846852 83564,6917.859,95.437,540.973,538.476,0.0
53280.0,STARLINK-4169,PAYLOAD,2024-01-17 23:26:46,15.08834075,0.0001862,53.2183,48.0375,113.1432,246.9756,7.4785e-05,9.02e-06,0.0,0 STARLINK-4169,1 53280U 22086AQ  24017.97692422  .00000902  00000-0  74785-4 0  9997,2 53280  53.2183  48.0375 0001862 113.1432 246.9756 15.08834075 83653,6917.898,95.438,541.052,538.475,0.0
53280.0,STARLINK-4169,PAYLOAD,2024-01-18 10:34:28,15.08840146,0.0001663,53.2177,45.9567,94.618,265.5002,0.00012655,1.727e-05,0.0,0 STARLINK-4169,1 53280U 22086AQ  24018.44060195  .00001727  00000-0  12655-3 0  9999,2 53280  53.2177  45.9567 0001663  94.6180 265.5002 15.08840146 83890,6917.88,95.438,540.895,538.594,0.0
53280.0,STARLINK-4169,PAYLOAD,2024-01-18 21:42:10,15.08841932,0.0002059,53.2199,43.8829,113.7464,246.3744,-3.8849e-05,-9.07e-06,0.0,0 STARLINK-4169,1 53280U 22086AQ  24018.90428815 -.00000907  00000-0 -38849-4 0  9992,2 53280  53.2199  43.8829 0002059 113.7464 246.3744 15.08841932 83962,6917.874,95.437,541.164,538.315,0.0
